$$SOE
2461302.500000000, A.D. 2026-Sep-19 00:00:00.0000, 2.086498956877726E+08, 2.907420561793808E+08, -3.775252519291036E+07,
2461309.500000000, A.D. 2026-Sep-26 00:00:00.0000, 1.993174885726730E+08, 2.968200747355672E+08, -3.729673017173849E+07,
2461316.500000000, A.D. 2026-Oct-03 00:00:00.0000, 1.897767678931637E+08, 3.025878912105829E+08, -3.680195611697750E+07,
2461323.500000000, A.D. 2026-Oct-10 00:00:00.0000, 1.800370288690001E+08, 3.080384023241157E+08, -3.626858939509398E+07,
2461330.500000000, A.D. 2026-Oct-17 00:00:00.0000, 1.701077940861149E+08, 3.131647119723986E+08, -3.569705042515473E+07,
2461337.500000000, A.D. 2026-Oct-24 00:00:00.0000, 1.599988136261603E+08, 3.179601373289509E+08, -3.508779409467594E+07,
2461344.500000000, A.D. 2026-Oct-31 00:00:00.0000, 1.497200652402548E+08, 3.224182151960176E+08, -3.444131022106074E+07,
2461351.500000000, A.D. 2026-Nov-07 00:00:00.0000, 1.392817548798011E+08, 3.265327086975944E+08, -3.375812408261003E+07,
2461358.500000000, A.D. 2026-Nov-14 00:00:00.0000, 1.286943177604465E+08, 3.302976152161461E+08, -3.303879696392670E+07,
2461365.500000000, A.D. 2026-Nov-21 00:00:00.0000, 1.179684181215342E+08, 3.337071762592340E+08, -3.228392649108337E+07,
2461372.500000000, A.D. 2026-Nov-28 00:00:00.0000, 1.071149466440423E+08, 3.367558862441990E+08, -3.149414690453932E+07,
2461379.500000000, A.D. 2026-Dec-05 00:00:00.0000, 9.614501910226957E+07, 3.394384995540062E+08, -3.067012965044746E+07,
2461386.500000000, A.D. 2026-Dec-12 00:00:00.0000, 8.506997637518099E+07, 3.417500389871601E+08, -2.981258404833539E+07,
2461393.500000000, A.D. 2026-Dec-19 00:00:00.0000, 7.390138388747516E+07, 3.436858056157449E+08, -2.892225785796288E+07,
2461400.500000000, A.D. 2026-Dec-26 00:00:00.0000, 6.265103029410906E+07, 3.452413891929668E+08, -2.799993780025506E+07,
2461407.500000000, A.D. 2027-Jan-02 00:00:00.0000, 5.133092564050531E+07, 3.464126789272833E+08, -2.704645007061921E+07,
2461414.500000000, A.D. 2027-Jan-09 00:00:00.0000, 3.995329906996287E+07, 3.471958746477593E+08, -2.606266085072187E+07,
2461421.500000000, A.D. 2027-Jan-16 00:00:00.0000, 2.853059606563856E+07, 3.475874983703992E+08, -2.504947681755713E+07,
2461428.500000000, A.D. 2027-Jan-23 00:00:00.0000, 1.707547522264817E+07, 3.475844062229629E+08, -2.400784565278667E+07,
2461435.500000000, A.D. 2027-Jan-30 00:00:00.0000, 5.600804684827155E+06, 3.471838006734776E+08, -2.293875656820755E+07,
2461442.500000000, A.D. 2027-Feb-06 00:00:00.0000, -5.880341385607375E+06, 3.463832433921068E+08, -2.184324085269679E+07,
2461449.500000000, A.D. 2027-Feb-13 00:00:00.0000, -1.735468682415342E+07, 3.451806699544693E+08, -2.072237229304110E+07,
2461456.500000000, A.D. 2027-Feb-20 00:00:00.0000, -2.880876038564761E+07, 3.435744055765698E+08, -1.957726731029746E+07,
2461463.500000000, A.D. 2027-Feb-27 00:00:00.0000, -4.022890423738720E+07, 3.415631786342337E+08, -1.840908519346531E+07,
2461470.500000000, A.D. 2027-Mar-06 00:00:00.0000, -5.160128107642856E+07, 3.391461338631252E+08, -1.721902854239342E+07,
2461477.500000000, A.D. 2027-Mar-13 00:00:00.0000, -6.291188153431587E+07, 3.363228472634271E+08, -1.600834359941018E+07,
2461484.500000000, A.D. 2027-Mar-20 00:00:00.0000, -7.414653306083633E+07, 3.330933418340111E+08, -1.477832042596516E+07,
2461491.500000000, A.D. 2027-Mar-27 00:00:00.0000, -8.529091015087374E+07, 3.294581035395072E+08, -1.353029297843665E+07,
2461498.500000000, A.D. 2027-Apr-03 00:00:00.0000, -9.633054577813759E+07, 3.254180974100878E+08, -1.226563909622811E+07,
2461505.500000000, A.D. 2027-Apr-10 00:00:00.0000, -1.072508440405450E+08, 3.209747837379805E+08, -1.098578039615373E+07,
2461512.500000000, A.D. 2027-Apr-17 00:00:00.0000, -1.180370940601308E+08, 3.161301342896761E+08, -9.692182066134632E+06,
2461519.500000000, A.D. 2027-Apr-24 00:00:00.0000, -1.286744851216123E+08, 3.108866483966753E+08, -8.386352559938461E+06,
2461526.500000000, A.D. 2027-May-01 00:00:00.0000, -1.391481228111983E+08, 3.052473688687367E+08, -7.069843207135916E+06,
2461533.500000000, A.D. 2027-May-08 00:00:00.0000, -1.494430459075646E+08, 2.992158983855909E+08, -5.744247693996742E+06,
2461540.500000000, A.D. 2027-May-15 00:00:00.0000, -1.595442455790069E+08, 2.927964172227463E+08, -4.411201189081296E+06,
2461547.500000000, A.D. 2027-May-22 00:00:00.0000, -1.694366884973427E+08, 2.859936996144926E+08, -3.072379170843214E+06,
2461554.500000000, A.D. 2027-May-29 00:00:00.0000, -1.791053405488413E+08, 2.788131271581050E+08, -1.729496372068167E+06,
2461561.500000000, A.D. 2027-Jun-05 00:00:00.0000, -1.885351902994526E+08, 2.712607022562184E+08, -3.843056540232748E+05,
2461568.500000000, A.D. 2027-Jun-12 00:00:00.0000, -1.977112742546559E+08, 2.633430618988658E+08, 9.614034195316732E+05,
2461575.500000000, A.D. 2027-Jun-19 00:00:00.0000, -2.066187042603046E+08, 2.550674907056357E+08, 2.305806273502767E+06,
2461582.500000000, A.D. 2027-Jun-26 00:00:00.0000, -2.152426967706444E+08, 2.464419328090281E+08, 3.647045241975904E+06,
2461589.500000000, A.D. 2027-Jul-03 00:00:00.0000, -2.235686038464039E+08, 2.374750024224984E+08, 4.983231717044324E+06,
2461596.500000000, A.D. 2027-Jul-10 00:00:00.0000, -2.315819458278598E+08, 2.281759929308361E+08, 6.312448532777742E+06,
2461603.500000000, A.D. 2027-Jul-17 00:00:00.0000, -2.392684456133875E+08, 2.185548842872291E+08, 7.632752586311221E+06,
2461610.500000000, A.D. 2027-Jul-24 00:00:00.0000, -2.466140643376635E+08, 2.086223484730282E+08, 8.942177683874115E+06,
2461617.500000000, A.D. 2027-Jul-31 00:00:00.0000, -2.536050379706718E+08, 1.983897530718288E+08, 1.023873759919918E+07,
2461624.500000000, A.D. 2027-Aug-07 00:00:00.0000, -2.602279149512518E+08, 1.878691639249292E+08, 1.152042946112023E+07,
2461631.500000000, A.D. 2027-Aug-14 00:00:00.0000, -2.664695970491123E+08, 1.770733464334692E+08, 1.278523766292176E+07,
2461638.500000000, A.D. 2027-Aug-21 00:00:00.0000, -2.723173827003658E+08, 1.660157619672802E+08, 1.403113796184985E+07,
2461645.500000000, A.D. 2027-Aug-28 00:00:00.0000, -2.777590092091902E+08, 1.547105603983179E+08, 1.525610155034473E+07,
2461652.500000000, A.D. 2027-Sep-04 00:00:00.0000, -2.827826948093235E+08, 1.431725710658228E+08, 1.645809940622381E+07,
2461659.500000000, A.D. 2027-Sep-11 00:00:00.0000, -2.873771817953061E+08, 1.314172913384273E+08, 1.763510698666809E+07,
2461666.500000000, A.D. 2027-Sep-18 00:00:00.0000, -2.915317803842999E+08, 1.194608719778311E+08, 1.878510918950371E+07,
2461673.500000000, A.D. 2027-Sep-25 00:00:00.0000, -2.952364128441582E+08, 1.073200991023261E+08, 1.990610554092827E+07,
2461680.500000000, A.D. 2027-Oct-02 00:00:00.0000, -2.984816575482666E+08, 9.501237267232467E+07, 2.099611558842462E+07,
2461687.500000000, A.D. 2027-Oct-09 00:00:00.0000, -3.012587926449016E+08, 8.255568140633482E+07, 2.205318447633966E+07,
2461694.500000000, A.D. 2027-Oct-16 00:00:00.0000, -3.035598389682879E+08, 6.996857400694799E+07, 2.307538867025337E+07,
2461701.500000000, A.D. 2027-Oct-23 00:00:00.0000, -3.053776016062554E+08, 5.727012665209280E+07, 2.406084177884728E+07,
2461708.500000000, A.D. 2027-Oct-30 00:00:00.0000, -3.067057094116170E+08, 4.447990735351445E+07, 2.500770045850196E+07,
2461715.500000000, A.D. 2027-Nov-06 00:00:00.0000, -3.075386532731630E+08, 3.161793833513036E+07, 2.591417056601673E+07,
2461722.500000000, A.D. 2027-Nov-13 00:00:00.0000, -3.078718247832374E+08, 1.870465441507573E+07, 2.677851353565384E+07,
2461729.500000000, A.D. 2027-Nov-20 00:00:00.0000, -3.077015520540350E+08, 5.760855308365036E+06, 2.759905249777874E+07,
2461736.500000000, A.D. 2027-Nov-27 00:00:00.0000, -3.070251307105647E+08, -7.192345039059557E+06, 2.837417819271236E+07,
2461743.500000000, A.D. 2027-Dec-04 00:00:00.0000, -3.058408517287977E+08, -2.013357099232867E+07, 2.910235489638522E+07,
2461750.500000000, A.D. 2027-Dec-11 00:00:00.0000, -3.041480263383259E+08, -3.304124039579767E+07, 2.978212628442598E+07,
2461757.500000000, A.D. 2027-Dec-18 00:00:00.0000, -3.019470074072359E+08, -4.589362244696826E+07, 3.041212113695771E+07,
2461764.500000000, A.D. 2027-Dec-25 00:00:00.0000, -2.992392068676686E+08, -5.866889797737933E+07, 3.099105882490565E+07,
2461771.500000000, A.D. 2028-Jan-01 00:00:00.0000, -2.960271088755659E+08, -7.134522179024060E+07, 3.151775452989536E+07,
$$EOE